CCSDS_OMM_VERS = 2.0
CREATION_DATE  = 
ORIGINATOR     = 

OBJECT_NAME    = ISS (ZARYA)
OBJECT_ID      = 1998-067A
CENTER_NAME    = EARTH
REF_FRAME      = TEME
TIME_SYSTEM    = UTC
MEAN_ELEMENT_THEORY = SGP/SGP4

EPOCH          = 2025-11-10T19:21:41.474592
MEAN_MOTION    = 15.49512626
ECCENTRICITY   = .00041371
INCLINATION    = 51.6337
RA_OF_ASC_NODE = 300.5531
ARG_OF_PERICENTER = 56.1394
MEAN_ANOMALY   = 303.9988

EPHEMERIS_TYPE = 0
CLASSIFICATION_TYPE = U
NORAD_CAT_ID   = 25544
ELEMENT_SET_NO = 999
REV_AT_EPOCH   = 53790
BSTAR          = .20668468E-3
MEAN_MOTION_DOT = .11159E-3
MEAN_MOTION_DDOT = 0

CCSDS_OMM_VERS = 2.0
CREATION_DATE  = 
ORIGINATOR     = 

OBJECT_NAME    = CSS (TIANHE)
OBJECT_ID      = 2021-035A
CENTER_NAME    = EARTH
REF_FRAME      = TEME
TIME_SYSTEM    = UTC
MEAN_ELEMENT_THEORY = SGP/SGP4

EPOCH          = 2025-11-10T22:38:39.077376
MEAN_MOTION    = 15.60859823
ECCENTRICITY   = .00047056
INCLINATION    = 41.4651
RA_OF_ASC_NODE = 209.7335
ARG_OF_PERICENTER = 1.0260
MEAN_ANOMALY   = 359.0588

EPHEMERIS_TYPE = 0
CLASSIFICATION_TYPE = U
NORAD_CAT_ID   = 48274
ELEMENT_SET_NO = 999
REV_AT_EPOCH   = 25906
BSTAR          = .4154796E-3
MEAN_MOTION_DOT = .35552E-3
MEAN_MOTION_DDOT = 0

CCSDS_OMM_VERS = 2.0
CREATION_DATE  = 
ORIGINATOR     = 

OBJECT_NAME    = ISS (NAUKA)
OBJECT_ID      = 2021-066A
CENTER_NAME    = EARTH
REF_FRAME      = TEME
TIME_SYSTEM    = UTC
MEAN_ELEMENT_THEORY = SGP/SGP4

EPOCH          = 2025-11-10T19:21:41.474592
MEAN_MOTION    = 15.49512626
ECCENTRICITY   = .00041371
INCLINATION    = 51.6337
RA_OF_ASC_NODE = 300.5531
ARG_OF_PERICENTER = 56.1394
MEAN_ANOMALY   = 303.9988

EPHEMERIS_TYPE = 0
CLASSIFICATION_TYPE = U
NORAD_CAT_ID   = 49044
ELEMENT_SET_NO = 999
REV_AT_EPOCH   = 23044
BSTAR          = .20668468E-3
MEAN_MOTION_DOT = .11159E-3
MEAN_MOTION_DDOT = 0

CCSDS_OMM_VERS = 2.0
CREATION_DATE  = 
ORIGINATOR     = 

OBJECT_NAME    = FREGAT DEB
OBJECT_ID      = 2011-037PF
CENTER_NAME    = EARTH
REF_FRAME      = TEME
TIME_SYSTEM    = UTC
MEAN_ELEMENT_THEORY = SGP/SGP4

EPOCH          = 2025-11-10T08:13:56.274816
MEAN_MOTION    = 12.33907876
ECCENTRICITY   = .08825741
INCLINATION    = 51.6287
RA_OF_ASC_NODE = 295.2324
ARG_OF_PERICENTER = 154.0554
MEAN_ANOMALY   = 210.7438

EPHEMERIS_TYPE = 0
CLASSIFICATION_TYPE = U
NORAD_CAT_ID   = 49271
ELEMENT_SET_NO = 999
REV_AT_EPOCH   = 19793
BSTAR          = .190319E-1
MEAN_MOTION_DOT = .8878E-4
MEAN_MOTION_DDOT = 0

CCSDS_OMM_VERS = 2.0
CREATION_DATE  = 
ORIGINATOR     = 

OBJECT_NAME    = CSS (WENTIAN)
OBJECT_ID      = 2022-085A
CENTER_NAME    = EARTH
REF_FRAME      = TEME
TIME_SYSTEM    = UTC
MEAN_ELEMENT_THEORY = SGP/SGP4

EPOCH          = 2025-11-10T22:38:39.077376
MEAN_MOTION    = 15.60859823
ECCENTRICITY   = .00047056
INCLINATION    = 41.4651
RA_OF_ASC_NODE = 209.7335
ARG_OF_PERICENTER = 1.0260
MEAN_ANOMALY   = 359.0588

EPHEMERIS_TYPE = 0
CLASSIFICATION_TYPE = U
NORAD_CAT_ID   = 53239
ELEMENT_SET_NO = 999
REV_AT_EPOCH   = 17384
BSTAR          = .4154796E-3
MEAN_MOTION_DOT = .35552E-3
MEAN_MOTION_DDOT = 0

CCSDS_OMM_VERS = 2.0
CREATION_DATE  = 
ORIGINATOR     = 

OBJECT_NAME    = CSS (MENGTIAN)
OBJECT_ID      = 2022-143A
CENTER_NAME    = EARTH
REF_FRAME      = TEME
TIME_SYSTEM    = UTC
MEAN_ELEMENT_THEORY = SGP/SGP4

EPOCH          = 2025-11-10T22:38:39.077376
MEAN_MOTION    = 15.60859823
ECCENTRICITY   = .00047056
INCLINATION    = 41.4651
RA_OF_ASC_NODE = 209.7335
ARG_OF_PERICENTER = 1.0260
MEAN_ANOMALY   = 359.0588

EPHEMERIS_TYPE = 0
CLASSIFICATION_TYPE = U
NORAD_CAT_ID   = 54216
ELEMENT_SET_NO = 999
REV_AT_EPOCH   = 15864
BSTAR          = .4154796E-3
MEAN_MOTION_DOT = .35552E-3
MEAN_MOTION_DDOT = 0

CCSDS_OMM_VERS = 2.0
CREATION_DATE  = 
ORIGINATOR     = 

OBJECT_NAME    = SOYUZ-MS 27
OBJECT_ID      = 2025-072A
CENTER_NAME    = EARTH
REF_FRAME      = TEME
TIME_SYSTEM    = UTC
MEAN_ELEMENT_THEORY = SGP/SGP4

EPOCH          = 2025-11-10T19:21:41.474592
MEAN_MOTION    = 15.49512626
ECCENTRICITY   = .00041371
INCLINATION    = 51.6337
RA_OF_ASC_NODE = 300.5531
ARG_OF_PERICENTER = 56.1394
MEAN_ANOMALY   = 303.9988

EPHEMERIS_TYPE = 0
CLASSIFICATION_TYPE = U
NORAD_CAT_ID   = 63520
ELEMENT_SET_NO = 999
REV_AT_EPOCH   = 2020
BSTAR          = .20668468E-3
MEAN_MOTION_DOT = .11159E-3
MEAN_MOTION_DDOT = 0

CCSDS_OMM_VERS = 2.0
CREATION_DATE  = 
ORIGINATOR     = 

OBJECT_NAME    = SHENZHOU-20 (SZ-20)
OBJECT_ID      = 2025-082A
CENTER_NAME    = EARTH
REF_FRAME      = TEME
TIME_SYSTEM    = UTC
MEAN_ELEMENT_THEORY = SGP/SGP4

EPOCH          = 2025-11-10T22:38:39.077376
MEAN_MOTION    = 15.60859823
ECCENTRICITY   = .00047056
INCLINATION    = 41.4651
RA_OF_ASC_NODE = 209.7335
ARG_OF_PERICENTER = 1.0260
MEAN_ANOMALY   = 359.0588

EPHEMERIS_TYPE = 0
CLASSIFICATION_TYPE = U
NORAD_CAT_ID   = 63632
ELEMENT_SET_NO = 999
REV_AT_EPOCH   = 25530
BSTAR          = .4154796E-3
MEAN_MOTION_DOT = .35552E-3
MEAN_MOTION_DDOT = 0

CCSDS_OMM_VERS = 2.0
CREATION_DATE  = 
ORIGINATOR     = 

OBJECT_NAME    = PROGRESS-MS 31
OBJECT_ID      = 2025-146A
CENTER_NAME    = EARTH
REF_FRAME      = TEME
TIME_SYSTEM    = UTC
MEAN_ELEMENT_THEORY = SGP/SGP4

EPOCH          = 2025-11-10T19:21:41.474592
MEAN_MOTION    = 15.49512626
ECCENTRICITY   = .00041371
INCLINATION    = 51.6337
RA_OF_ASC_NODE = 300.5531
ARG_OF_PERICENTER = 56.1394
MEAN_ANOMALY   = 303.9988

EPHEMERIS_TYPE = 0
CLASSIFICATION_TYPE = U
NORAD_CAT_ID   = 64751
ELEMENT_SET_NO = 999
REV_AT_EPOCH   = 675
BSTAR          = .20668468E-3
MEAN_MOTION_DOT = .11159E-3
MEAN_MOTION_DDOT = 0

CCSDS_OMM_VERS = 2.0
CREATION_DATE  = 
ORIGINATOR     = 

OBJECT_NAME    = TIANZHOU-9
OBJECT_ID      = 2025-149A
CENTER_NAME    = EARTH
REF_FRAME      = TEME
TIME_SYSTEM    = UTC
MEAN_ELEMENT_THEORY = SGP/SGP4

EPOCH          = 2025-11-10T22:38:39.077376
MEAN_MOTION    = 15.60859823
ECCENTRICITY   = .00047056
INCLINATION    = 41.4651
RA_OF_ASC_NODE = 209.7335
ARG_OF_PERICENTER = 1.0260
MEAN_ANOMALY   = 359.0588

EPHEMERIS_TYPE = 0
CLASSIFICATION_TYPE = U
NORAD_CAT_ID   = 64786
ELEMENT_SET_NO = 999
REV_AT_EPOCH   = 25530
BSTAR          = .4154796E-3
MEAN_MOTION_DOT = .35552E-3
MEAN_MOTION_DDOT = 0

CCSDS_OMM_VERS = 2.0
CREATION_DATE  = 
ORIGINATOR     = 

OBJECT_NAME    = CREW DRAGON 11
OBJECT_ID      = 2025-166A
CENTER_NAME    = EARTH
REF_FRAME      = TEME
TIME_SYSTEM    = UTC
MEAN_ELEMENT_THEORY = SGP/SGP4

EPOCH          = 2025-11-10T19:21:41.474592
MEAN_MOTION    = 15.49512626
ECCENTRICITY   = .00041371
INCLINATION    = 51.6337
RA_OF_ASC_NODE = 300.5531
ARG_OF_PERICENTER = 56.1394
MEAN_ANOMALY   = 303.9988

EPHEMERIS_TYPE = 0
CLASSIFICATION_TYPE = U
NORAD_CAT_ID   = 65077
ELEMENT_SET_NO = 999
REV_AT_EPOCH   = 214
BSTAR          = .20668468E-3
MEAN_MOTION_DOT = .11159E-3
MEAN_MOTION_DDOT = 0

CCSDS_OMM_VERS = 2.0
CREATION_DATE  = 
ORIGINATOR     = 

OBJECT_NAME    = DRAGON CRS-33
OBJECT_ID      = 2025-186A
CENTER_NAME    = EARTH
REF_FRAME      = TEME
TIME_SYSTEM    = UTC
MEAN_ELEMENT_THEORY = SGP/SGP4

EPOCH          = 2025-11-10T19:21:41.474592
MEAN_MOTION    = 15.49512626
ECCENTRICITY   = .00041371
INCLINATION    = 51.6337
RA_OF_ASC_NODE = 300.5531
ARG_OF_PERICENTER = 56.1394
MEAN_ANOMALY   = 303.9988

EPHEMERIS_TYPE = 0
CLASSIFICATION_TYPE = U
NORAD_CAT_ID   = 65304
ELEMENT_SET_NO = 999
REV_AT_EPOCH   = 11
BSTAR          = .20668468E-3
MEAN_MOTION_DOT = .11159E-3
MEAN_MOTION_DDOT = 0

